NIMIQ 2                 
1 27632U 02062A   26087.49947546 -.00000082  00000+0  00000+0 0  9990
2 27632   9.2614  57.7356 0006416 308.2875 250.5103  1.00272039 43374
ANIK F2                 
1 28378U 04027A   26087.52269326 -.00000067  00000+0  00000+0 0  9991
2 28378   3.0771  80.4966 0003548 314.5958 227.8992  1.00271430 40456
ANIK F1R                
1 28868U 05036A   26087.52347327 -.00000091  00000+0  00000+0 0  9991
2 28868   4.1072  77.5661 0003000 304.1633 245.3461  1.00271920 45649
ANIK F3                 
1 31102U 07009A   26087.52121993 -.00000020  00000+0  00000+0 0  9999
2 31102   0.9894  84.7878 0002728 279.9497 250.1113  1.00271882 45750
NIMIQ 4                 
1 33373U 08044A   26087.52849996 -.00000240  00000+0  00000+0 0  9995
2 33373   0.0183 130.8578 0002335 239.7096 283.6372  1.00271411 64170
TELSTAR 11N             
1 34111U 09009A   26087.32335980  .00000000  00000+0  00000+0 0  9992
2 34111   0.0239 168.2708 0002471 186.8236 269.5075  1.00270397 45435
TERRESTAR-1             
1 35496U 09035A   26087.49975324 -.00000072  00000+0  00000+0 0  9998
2 35496   5.1158  48.8115 0003052 323.4279 242.5978  1.00274327 61321
NIMIQ 5                 
1 35873U 09050A   26087.45899909 -.00000276  00000+0  00000+0 0  9990
2 35873   0.0204 109.2954 0002792 257.8057 271.3008  1.00270798 60537
SKYTERRA 1              
1 37218U 10061A   26087.52468661 -.00000134  00000+0  00000+0 0  9997
2 37218   4.9551  50.8940 0001885 344.6445 237.9642  1.00271361 56381
TELSTAR 14R             
1 37602U 11021A   26087.53222664 -.00000300  00000+0  00000+0 0  9998
2 37602   0.0242 255.8983 0002310 103.5286 315.1181  1.00271764 55029
NIMIQ 6                 
1 38342U 12026A   26087.52667995 -.00000193  00000+0  00000+0 0  9995
2 38342   0.0215  92.4388 0002546 264.8017 287.1878  1.00272280 49601
ANIK G1                 
1 39127U 13014A   26087.52347327 -.00000094  00000+0  00000+0 0  9999
2 39127   0.0167 118.4445 0002582 225.0588 283.5749  1.00271293 47444
TELSTAR 12V             
1 41036U 15068A   26087.32786649 -.00000139  00000+0  00000+0 0  9994
2 41036   0.0184 154.2456 0002532 209.9734 284.5469  1.00271583 37816
VIASAT-2                
1 42740U 17029A   26087.53092664 -.00000285  00000+0  00000+0 0  9998
2 42740   0.0198 253.8624 0000382  87.6934 325.6003  1.00271429 32399
LEO 1 (LEO VANTAGE 1)   
1 43113U 18004C   26087.45863178  .00005221  00000+0  36446-3 0  9995
2 43113  99.2461 355.2192 0351275 327.3676  30.6244 14.67375675425640
TELSTAR 19V             
1 43562U 18059A   26087.35322439 -.00000300  00000+0  00000+0 0  9999
2 43562   0.0182 180.0377 0000881 264.3415 165.5389  1.00274786 28339
TELSTAR 18V             
1 43611U 18069A   26087.58586462 -.00000313  00000+0  00000+0 0  9992
2 43611   0.0155 243.7988 0002167 113.5778 177.5170  1.00272070 27834
