[{"OBJECT_NAME":"NIMIQ 2","OBJECT_ID":"2002-062A","EPOCH":"2026-03-28T11:59:14.679744","MEAN_MOTION":1.00272039,"ECCENTRICITY":0.00064166,"INCLINATION":9.2614,"RA_OF_ASC_NODE":57.7356,"ARG_OF_PERICENTER":308.2875,"MEAN_ANOMALY":250.5103,"EPHEMERIS_TYPE":0,"CLASSIFICATION_TYPE":"U","NORAD_CAT_ID":27632,"ELEMENT_SET_NO":999,"REV_AT_EPOCH":4337,"BSTAR":0,"MEAN_MOTION_DOT":-8.2e-7,"MEAN_MOTION_DDOT":0},{"OBJECT_NAME":"ANIK F2","OBJECT_ID":"2004-027A","EPOCH":"2026-03-28T12:32:40.697664","MEAN_MOTION":1.0027143,"ECCENTRICITY":0.00035488,"INCLINATION":3.0771,"RA_OF_ASC_NODE":80.4966,"ARG_OF_PERICENTER":314.5958,"MEAN_ANOMALY":227.8992,"EPHEMERIS_TYPE":0,"CLASSIFICATION_TYPE":"U","NORAD_CAT_ID":28378,"ELEMENT_SET_NO":999,"REV_AT_EPOCH":4045,"BSTAR":0,"MEAN_MOTION_DOT":-6.7e-7,"MEAN_MOTION_DDOT":0},{"OBJECT_NAME":"ANIK F1R","OBJECT_ID":"2005-036A","EPOCH":"2026-03-28T12:33:48.090528","MEAN_MOTION":1.0027192,"ECCENTRICITY":0.00030009,"INCLINATION":4.1072,"RA_OF_ASC_NODE":77.5661,"ARG_OF_PERICENTER":304.1633,"MEAN_ANOMALY":245.3461,"EPHEMERIS_TYPE":0,"CLASSIFICATION_TYPE":"U","NORAD_CAT_ID":28868,"ELEMENT_SET_NO":999,"REV_AT_EPOCH":4564,"BSTAR":0,"MEAN_MOTION_DOT":-9.1e-7,"MEAN_MOTION_DDOT":0},{"OBJECT_NAME":"ANIK F3","OBJECT_ID":"2007-009A","EPOCH":"2026-03-28T12:30:33.401952","MEAN_MOTION":1.00271882,"ECCENTRICITY":0.00027286,"INCLINATION":0.9894,"RA_OF_ASC_NODE":84.7878,"ARG_OF_PERICENTER":279.9497,"MEAN_ANOMALY":250.1113,"EPHEMERIS_TYPE":0,"CLASSIFICATION_TYPE":"U","NORAD_CAT_ID":31102,"ELEMENT_SET_NO":999,"REV_AT_EPOCH":4575,"BSTAR":0,"MEAN_MOTION_DOT":-2.0e-7,"MEAN_MOTION_DDOT":0},{"OBJECT_NAME":"NIMIQ 4","OBJECT_ID":"2008-044A","EPOCH":"2026-03-28T12:41:02.396544","MEAN_MOTION":1.00271411,"ECCENTRICITY":0.00023356,"INCLINATION":0.0183,"RA_OF_ASC_NODE":130.8578,"ARG_OF_PERICENTER":239.7096,"MEAN_ANOMALY":283.6372,"EPHEMERIS_TYPE":0,"CLASSIFICATION_TYPE":"U","NORAD_CAT_ID":33373,"ELEMENT_SET_NO":999,"REV_AT_EPOCH":6417,"BSTAR":0,"MEAN_MOTION_DOT":-2.4e-6,"MEAN_MOTION_DDOT":0},{"OBJECT_NAME":"TELSTAR 11N","OBJECT_ID":"2009-009A","EPOCH":"2026-03-28T07:45:38.286720","MEAN_MOTION":1.00270397,"ECCENTRICITY":0.00024716,"INCLINATION":0.0239,"RA_OF_ASC_NODE":168.2708,"ARG_OF_PERICENTER":186.8236,"MEAN_ANOMALY":269.5075,"EPHEMERIS_TYPE":0,"CLASSIFICATION_TYPE":"U","NORAD_CAT_ID":34111,"ELEMENT_SET_NO":999,"REV_AT_EPOCH":4543,"BSTAR":0,"MEAN_MOTION_DOT":0,"MEAN_MOTION_DDOT":0},{"OBJECT_NAME":"TERRESTAR-1","OBJECT_ID":"2009-035A","EPOCH":"2026-03-28T11:59:38.679936","MEAN_MOTION":1.00274327,"ECCENTRICITY":0.0003052,"INCLINATION":5.1158,"RA_OF_ASC_NODE":48.8115,"ARG_OF_PERICENTER":323.4279,"MEAN_ANOMALY":242.5978,"EPHEMERIS_TYPE":0,"CLASSIFICATION_TYPE":"U","NORAD_CAT_ID":35496,"ELEMENT_SET_NO":999,"REV_AT_EPOCH":6132,"BSTAR":0,"MEAN_MOTION_DOT":-7.2e-7,"MEAN_MOTION_DDOT":0},{"OBJECT_NAME":"NIMIQ 5","OBJECT_ID":"2009-050A","EPOCH":"2026-03-28T11:00:57.521376","MEAN_MOTION":1.00270798,"ECCENTRICITY":0.0002792,"INCLINATION":0.0204,"RA_OF_ASC_NODE":109.2954,"ARG_OF_PERICENTER":257.8057,"MEAN_ANOMALY":271.3008,"EPHEMERIS_TYPE":0,"CLASSIFICATION_TYPE":"U","NORAD_CAT_ID":35873,"ELEMENT_SET_NO":999,"REV_AT_EPOCH":6053,"BSTAR":0,"MEAN_MOTION_DOT":-2.76e-6,"MEAN_MOTION_DDOT":0},{"OBJECT_NAME":"SKYTERRA 1","OBJECT_ID":"2010-061A","EPOCH":"2026-03-28T12:35:32.923104","MEAN_MOTION":1.00271361,"ECCENTRICITY":0.0001885,"INCLINATION":4.9551,"RA_OF_ASC_NODE":50.894,"ARG_OF_PERICENTER":344.6445,"MEAN_ANOMALY":237.9642,"EPHEMERIS_TYPE":0,"CLASSIFICATION_TYPE":"U","NORAD_CAT_ID":37218,"ELEMENT_SET_NO":999,"REV_AT_EPOCH":5638,"BSTAR":0,"MEAN_MOTION_DOT":-1.34e-6,"MEAN_MOTION_DDOT":0},{"OBJECT_NAME":"TELSTAR 14R","OBJECT_ID":"2011-021A","EPOCH":"2026-03-28T12:46:24.381696","MEAN_MOTION":1.00271764,"ECCENTRICITY":0.00023109,"INCLINATION":0.0242,"RA_OF_ASC_NODE":255.8983,"ARG_OF_PERICENTER":103.5286,"MEAN_ANOMALY":315.1181,"EPHEMERIS_TYPE":0,"CLASSIFICATION_TYPE":"U","NORAD_CAT_ID":37602,"ELEMENT_SET_NO":999,"REV_AT_EPOCH":5502,"BSTAR":0,"MEAN_MOTION_DOT":-3.0e-6,"MEAN_MOTION_DDOT":0},{"OBJECT_NAME":"NIMIQ 6","OBJECT_ID":"2012-026A","EPOCH":"2026-03-28T12:38:25.147680","MEAN_MOTION":1.0027228,"ECCENTRICITY":0.00025466,"INCLINATION":0.0215,"RA_OF_ASC_NODE":92.4388,"ARG_OF_PERICENTER":264.8017,"MEAN_ANOMALY":287.1878,"EPHEMERIS_TYPE":0,"CLASSIFICATION_TYPE":"U","NORAD_CAT_ID":38342,"ELEMENT_SET_NO":999,"REV_AT_EPOCH":4960,"BSTAR":0,"MEAN_MOTION_DOT":-1.93e-6,"MEAN_MOTION_DDOT":0},{"OBJECT_NAME":"ANIK G1","OBJECT_ID":"2013-014A","EPOCH":"2026-03-28T12:33:48.090528","MEAN_MOTION":1.00271293,"ECCENTRICITY":0.00025829,"INCLINATION":0.0167,"RA_OF_ASC_NODE":118.4445,"ARG_OF_PERICENTER":225.0588,"MEAN_ANOMALY":283.5749,"EPHEMERIS_TYPE":0,"CLASSIFICATION_TYPE":"U","NORAD_CAT_ID":39127,"ELEMENT_SET_NO":999,"REV_AT_EPOCH":4744,"BSTAR":0,"MEAN_MOTION_DOT":-9.4e-7,"MEAN_MOTION_DDOT":0},{"OBJECT_NAME":"TELSTAR 12V","OBJECT_ID":"2015-068A","EPOCH":"2026-03-28T07:52:07.664736","MEAN_MOTION":1.00271583,"ECCENTRICITY":0.00025329,"INCLINATION":0.0184,"RA_OF_ASC_NODE":154.2456,"ARG_OF_PERICENTER":209.9734,"MEAN_ANOMALY":284.5469,"EPHEMERIS_TYPE":0,"CLASSIFICATION_TYPE":"U","NORAD_CAT_ID":41036,"ELEMENT_SET_NO":999,"REV_AT_EPOCH":3781,"BSTAR":0,"MEAN_MOTION_DOT":-1.39e-6,"MEAN_MOTION_DDOT":0},{"OBJECT_NAME":"VIASAT-2","OBJECT_ID":"2017-029A","EPOCH":"2026-03-28T12:44:32.061696","MEAN_MOTION":1.00271429,"ECCENTRICITY":3.823e-5,"INCLINATION":0.0198,"RA_OF_ASC_NODE":253.8624,"ARG_OF_PERICENTER":87.6934,"MEAN_ANOMALY":325.6003,"EPHEMERIS_TYPE":0,"CLASSIFICATION_TYPE":"U","NORAD_CAT_ID":42740,"ELEMENT_SET_NO":999,"REV_AT_EPOCH":3239,"BSTAR":0,"MEAN_MOTION_DOT":-2.85e-6,"MEAN_MOTION_DDOT":0},{"OBJECT_NAME":"LEO 1 (LEO VANTAGE 1)","OBJECT_ID":"2018-004C","EPOCH":"2026-03-28T11:00:25.785792","MEAN_MOTION":14.67375675,"ECCENTRICITY":0.03512759,"INCLINATION":99.2461,"RA_OF_ASC_NODE":355.2192,"ARG_OF_PERICENTER":327.3676,"MEAN_ANOMALY":30.6244,"EPHEMERIS_TYPE":0,"CLASSIFICATION_TYPE":"U","NORAD_CAT_ID":43113,"ELEMENT_SET_NO":999,"REV_AT_EPOCH":42564,"BSTAR":0.00036446439,"MEAN_MOTION_DOT":5.221e-5,"MEAN_MOTION_DDOT":0},{"OBJECT_NAME":"TELSTAR 19V","OBJECT_ID":"2018-059A","EPOCH":"2026-03-28T08:28:38.587296","MEAN_MOTION":1.00274786,"ECCENTRICITY":8.819e-5,"INCLINATION":0.0182,"RA_OF_ASC_NODE":180.0377,"ARG_OF_PERICENTER":264.3415,"MEAN_ANOMALY":165.5389,"EPHEMERIS_TYPE":0,"CLASSIFICATION_TYPE":"U","NORAD_CAT_ID":43562,"ELEMENT_SET_NO":999,"REV_AT_EPOCH":2833,"BSTAR":0,"MEAN_MOTION_DOT":-3.0e-6,"MEAN_MOTION_DDOT":0},{"OBJECT_NAME":"TELSTAR 18V","OBJECT_ID":"2018-069A","EPOCH":"2026-03-28T14:03:38.703168","MEAN_MOTION":1.0027207,"ECCENTRICITY":0.00021677,"INCLINATION":0.0155,"RA_OF_ASC_NODE":243.7988,"ARG_OF_PERICENTER":113.5778,"MEAN_ANOMALY":177.517,"EPHEMERIS_TYPE":0,"CLASSIFICATION_TYPE":"U","NORAD_CAT_ID":43611,"ELEMENT_SET_NO":999,"REV_AT_EPOCH":2783,"BSTAR":0,"MEAN_MOTION_DOT":-3.13e-6,"MEAN_MOTION_DDOT":0}]
